STARLINK-36822          
1 67909U 26036F   26063.41668981  .00006260  00000+0  32300-4 0  9993
2 67909  42.9945 282.0712 0001723 260.9656 166.2400 15.81974826  2805
STARLINK-36847          
1 67910U 26036G   26063.41668981  .00105439  00000+0  49923-3 0  9991
2 67910  42.9956 282.0603 0001672 255.5205 175.9634 15.81927735  2804
STARLINK-36736          
1 67911U 26036H   26063.41668981 -.00120334  00000+0 -57645-3 0  9995
2 67911  42.9947 282.0491 0001804 272.2669 163.4664 15.82031345  2806
STARLINK-36676          
1 67912U 26036J   26063.41668981 -.00075451  00000+0 -35829-3 0  9995
2 67912  42.9950 282.0392 0002509 274.1899 165.7749 15.82048583  2801
STARLINK-36690          
1 67913U 26036K   26063.41668981 -.00015626  00000+0 -71773-4 0  9993
2 67913  42.9954 282.0281 0001692 254.9534 189.2968 15.82025634  2803
STARLINK-36724          
1 67914U 26036L   26063.41668981  .00067110  00000+0  31958-3 0  9997
2 67914  42.9951 282.0059 0001425 257.0323 195.8015 15.81961435  2801
STARLINK-36723          
1 67915U 26036M   26063.41668981  .00125253  00000+0  59104-3 0  9994
2 67915  42.9950 282.0171 0001846 262.8995 185.6734 15.81933686  2804
STARLINK-36721          
1 67916U 26036N   26063.41668981  .00099255  00000+0  47013-3 0  9993
2 67916  42.9952 281.9958 0001978 270.9820 186.1321 15.81940899  2803
STARLINK-36722          
1 67917U 26036P   26063.41668981  .00139294  00000+0  65541-3 0  9998
2 67917  42.9941 281.9850 0002144 246.8620 214.4810 15.81950559  2801
STARLINK-36341          
1 67918U 26036Q   26063.41668981  .00095202  00000+0  45110-3 0  9999
2 67918  42.9940 281.9630 0001862 254.9388 214.9951 15.81948359  2800
STARLINK-36663          
1 67919U 26036R   26063.41668981  .00087775  00000+0  41629-3 0  9997
2 67919  42.9944 281.9743 0002487 260.0716 205.5837 15.81955659  2807
STARLINK-36375          
1 67920U 26036S   26063.41668981  .00097489  00000+0  46179-3 0  9997
2 67920  42.9941 281.9526 0002433 264.0450 210.1642 15.81945121  2804
