CCSDS_OMM_VERS = 2.0
CREATION_DATE  = 
ORIGINATOR     = 

OBJECT_NAME    = STARLINK-36822
OBJECT_ID      = 2026-036F
CENTER_NAME    = EARTH
REF_FRAME      = TEME
TIME_SYSTEM    = UTC
MEAN_ELEMENT_THEORY = SGP/SGP4

EPOCH          = 2026-03-04T10:00:01.999584
MEAN_MOTION    = 15.81974826
ECCENTRICITY   = .0001723
INCLINATION    = 42.9945
RA_OF_ASC_NODE = 282.0712
ARG_OF_PERICENTER = 260.9656
MEAN_ANOMALY   = 166.2400

EPHEMERIS_TYPE = 0
CLASSIFICATION_TYPE = U
NORAD_CAT_ID   = 67909
ELEMENT_SET_NO = 999
REV_AT_EPOCH   = 280
BSTAR          = .323E-4
MEAN_MOTION_DOT = .626E-4
MEAN_MOTION_DDOT = 0

CCSDS_OMM_VERS = 2.0
CREATION_DATE  = 
ORIGINATOR     = 

OBJECT_NAME    = STARLINK-36847
OBJECT_ID      = 2026-036G
CENTER_NAME    = EARTH
REF_FRAME      = TEME
TIME_SYSTEM    = UTC
MEAN_ELEMENT_THEORY = SGP/SGP4

EPOCH          = 2026-03-04T10:00:01.999584
MEAN_MOTION    = 15.81927735
ECCENTRICITY   = .0001672
INCLINATION    = 42.9956
RA_OF_ASC_NODE = 282.0603
ARG_OF_PERICENTER = 255.5205
MEAN_ANOMALY   = 175.9634

EPHEMERIS_TYPE = 0
CLASSIFICATION_TYPE = U
NORAD_CAT_ID   = 67910
ELEMENT_SET_NO = 999
REV_AT_EPOCH   = 280
BSTAR          = .49923E-3
MEAN_MOTION_DOT = .105439E-2
MEAN_MOTION_DDOT = 0

CCSDS_OMM_VERS = 2.0
CREATION_DATE  = 
ORIGINATOR     = 

OBJECT_NAME    = STARLINK-36736
OBJECT_ID      = 2026-036H
CENTER_NAME    = EARTH
REF_FRAME      = TEME
TIME_SYSTEM    = UTC
MEAN_ELEMENT_THEORY = SGP/SGP4

EPOCH          = 2026-03-04T10:00:01.999584
MEAN_MOTION    = 15.82031345
ECCENTRICITY   = .0001804
INCLINATION    = 42.9947
RA_OF_ASC_NODE = 282.0491
ARG_OF_PERICENTER = 272.2669
MEAN_ANOMALY   = 163.4664

EPHEMERIS_TYPE = 0
CLASSIFICATION_TYPE = U
NORAD_CAT_ID   = 67911
ELEMENT_SET_NO = 999
REV_AT_EPOCH   = 280
BSTAR          = -.57645E-3
MEAN_MOTION_DOT = -.120334E-2
MEAN_MOTION_DDOT = 0

CCSDS_OMM_VERS = 2.0
CREATION_DATE  = 
ORIGINATOR     = 

OBJECT_NAME    = STARLINK-36676
OBJECT_ID      = 2026-036J
CENTER_NAME    = EARTH
REF_FRAME      = TEME
TIME_SYSTEM    = UTC
MEAN_ELEMENT_THEORY = SGP/SGP4

EPOCH          = 2026-03-04T10:00:01.999584
MEAN_MOTION    = 15.82048583
ECCENTRICITY   = .0002509
INCLINATION    = 42.9950
RA_OF_ASC_NODE = 282.0392
ARG_OF_PERICENTER = 274.1899
MEAN_ANOMALY   = 165.7749

EPHEMERIS_TYPE = 0
CLASSIFICATION_TYPE = U
NORAD_CAT_ID   = 67912
ELEMENT_SET_NO = 999
REV_AT_EPOCH   = 280
BSTAR          = -.35829E-3
MEAN_MOTION_DOT = -.75451E-3
MEAN_MOTION_DDOT = 0

CCSDS_OMM_VERS = 2.0
CREATION_DATE  = 
ORIGINATOR     = 

OBJECT_NAME    = STARLINK-36690
OBJECT_ID      = 2026-036K
CENTER_NAME    = EARTH
REF_FRAME      = TEME
TIME_SYSTEM    = UTC
MEAN_ELEMENT_THEORY = SGP/SGP4

EPOCH          = 2026-03-04T10:00:01.999584
MEAN_MOTION    = 15.82025634
ECCENTRICITY   = .0001692
INCLINATION    = 42.9954
RA_OF_ASC_NODE = 282.0281
ARG_OF_PERICENTER = 254.9534
MEAN_ANOMALY   = 189.2968

EPHEMERIS_TYPE = 0
CLASSIFICATION_TYPE = U
NORAD_CAT_ID   = 67913
ELEMENT_SET_NO = 999
REV_AT_EPOCH   = 280
BSTAR          = -.71773E-4
MEAN_MOTION_DOT = -.15626E-3
MEAN_MOTION_DDOT = 0

CCSDS_OMM_VERS = 2.0
CREATION_DATE  = 
ORIGINATOR     = 

OBJECT_NAME    = STARLINK-36724
OBJECT_ID      = 2026-036L
CENTER_NAME    = EARTH
REF_FRAME      = TEME
TIME_SYSTEM    = UTC
MEAN_ELEMENT_THEORY = SGP/SGP4

EPOCH          = 2026-03-04T10:00:01.999584
MEAN_MOTION    = 15.81961435
ECCENTRICITY   = .0001425
INCLINATION    = 42.9951
RA_OF_ASC_NODE = 282.0059
ARG_OF_PERICENTER = 257.0323
MEAN_ANOMALY   = 195.8015

EPHEMERIS_TYPE = 0
CLASSIFICATION_TYPE = U
NORAD_CAT_ID   = 67914
ELEMENT_SET_NO = 999
REV_AT_EPOCH   = 280
BSTAR          = .31958E-3
MEAN_MOTION_DOT = .6711E-3
MEAN_MOTION_DDOT = 0

CCSDS_OMM_VERS = 2.0
CREATION_DATE  = 
ORIGINATOR     = 

OBJECT_NAME    = STARLINK-36723
OBJECT_ID      = 2026-036M
CENTER_NAME    = EARTH
REF_FRAME      = TEME
TIME_SYSTEM    = UTC
MEAN_ELEMENT_THEORY = SGP/SGP4

EPOCH          = 2026-03-04T10:00:01.999584
MEAN_MOTION    = 15.81933686
ECCENTRICITY   = .0001846
INCLINATION    = 42.9950
RA_OF_ASC_NODE = 282.0171
ARG_OF_PERICENTER = 262.8995
MEAN_ANOMALY   = 185.6734

EPHEMERIS_TYPE = 0
CLASSIFICATION_TYPE = U
NORAD_CAT_ID   = 67915
ELEMENT_SET_NO = 999
REV_AT_EPOCH   = 280
BSTAR          = .59104E-3
MEAN_MOTION_DOT = .125253E-2
MEAN_MOTION_DDOT = 0

CCSDS_OMM_VERS = 2.0
CREATION_DATE  = 
ORIGINATOR     = 

OBJECT_NAME    = STARLINK-36721
OBJECT_ID      = 2026-036N
CENTER_NAME    = EARTH
REF_FRAME      = TEME
TIME_SYSTEM    = UTC
MEAN_ELEMENT_THEORY = SGP/SGP4

EPOCH          = 2026-03-04T10:00:01.999584
MEAN_MOTION    = 15.81940899
ECCENTRICITY   = .0001978
INCLINATION    = 42.9952
RA_OF_ASC_NODE = 281.9958
ARG_OF_PERICENTER = 270.9820
MEAN_ANOMALY   = 186.1321

EPHEMERIS_TYPE = 0
CLASSIFICATION_TYPE = U
NORAD_CAT_ID   = 67916
ELEMENT_SET_NO = 999
REV_AT_EPOCH   = 280
BSTAR          = .47013E-3
MEAN_MOTION_DOT = .99255E-3
MEAN_MOTION_DDOT = 0

CCSDS_OMM_VERS = 2.0
CREATION_DATE  = 
ORIGINATOR     = 

OBJECT_NAME    = STARLINK-36722
OBJECT_ID      = 2026-036P
CENTER_NAME    = EARTH
REF_FRAME      = TEME
TIME_SYSTEM    = UTC
MEAN_ELEMENT_THEORY = SGP/SGP4

EPOCH          = 2026-03-04T10:00:01.999584
MEAN_MOTION    = 15.81950559
ECCENTRICITY   = .0002144
INCLINATION    = 42.9941
RA_OF_ASC_NODE = 281.9850
ARG_OF_PERICENTER = 246.8620
MEAN_ANOMALY   = 214.4810

EPHEMERIS_TYPE = 0
CLASSIFICATION_TYPE = U
NORAD_CAT_ID   = 67917
ELEMENT_SET_NO = 999
REV_AT_EPOCH   = 280
BSTAR          = .65541E-3
MEAN_MOTION_DOT = .139294E-2
MEAN_MOTION_DDOT = 0

CCSDS_OMM_VERS = 2.0
CREATION_DATE  = 
ORIGINATOR     = 

OBJECT_NAME    = STARLINK-36341
OBJECT_ID      = 2026-036Q
CENTER_NAME    = EARTH
REF_FRAME      = TEME
TIME_SYSTEM    = UTC
MEAN_ELEMENT_THEORY = SGP/SGP4

EPOCH          = 2026-03-04T10:00:01.999584
MEAN_MOTION    = 15.81948359
ECCENTRICITY   = .0001862
INCLINATION    = 42.9940
RA_OF_ASC_NODE = 281.9630
ARG_OF_PERICENTER = 254.9388
MEAN_ANOMALY   = 214.9951

EPHEMERIS_TYPE = 0
CLASSIFICATION_TYPE = U
NORAD_CAT_ID   = 67918
ELEMENT_SET_NO = 999
REV_AT_EPOCH   = 280
BSTAR          = .4511E-3
MEAN_MOTION_DOT = .95202E-3
MEAN_MOTION_DDOT = 0

CCSDS_OMM_VERS = 2.0
CREATION_DATE  = 
ORIGINATOR     = 

OBJECT_NAME    = STARLINK-36663
OBJECT_ID      = 2026-036R
CENTER_NAME    = EARTH
REF_FRAME      = TEME
TIME_SYSTEM    = UTC
MEAN_ELEMENT_THEORY = SGP/SGP4

EPOCH          = 2026-03-04T10:00:01.999584
MEAN_MOTION    = 15.81955659
ECCENTRICITY   = .0002487
INCLINATION    = 42.9944
RA_OF_ASC_NODE = 281.9743
ARG_OF_PERICENTER = 260.0716
MEAN_ANOMALY   = 205.5837

EPHEMERIS_TYPE = 0
CLASSIFICATION_TYPE = U
NORAD_CAT_ID   = 67919
ELEMENT_SET_NO = 999
REV_AT_EPOCH   = 280
BSTAR          = .41629E-3
MEAN_MOTION_DOT = .87775E-3
MEAN_MOTION_DDOT = 0

CCSDS_OMM_VERS = 2.0
CREATION_DATE  = 
ORIGINATOR     = 

OBJECT_NAME    = STARLINK-36375
OBJECT_ID      = 2026-036S
CENTER_NAME    = EARTH
REF_FRAME      = TEME
TIME_SYSTEM    = UTC
MEAN_ELEMENT_THEORY = SGP/SGP4

EPOCH          = 2026-03-04T10:00:01.999584
MEAN_MOTION    = 15.81945121
ECCENTRICITY   = .0002433
INCLINATION    = 42.9941
RA_OF_ASC_NODE = 281.9526
ARG_OF_PERICENTER = 264.0450
MEAN_ANOMALY   = 210.1642

EPHEMERIS_TYPE = 0
CLASSIFICATION_TYPE = U
NORAD_CAT_ID   = 67920
ELEMENT_SET_NO = 999
REV_AT_EPOCH   = 280
BSTAR          = .46179E-3
MEAN_MOTION_DOT = .97489E-3
MEAN_MOTION_DDOT = 0

